0 IRIDIUM 33 DEB
1 34537U 97051JE  13282.20911439  .00061326  00000-0  73903-2 0  9384
2 34537 086.3206 087.9695 0048602 288.6532 123.3643 14.82700111247546
0 IRIDIUM 33 DEB
1 34537U 97051JE  13282.69649102  .00042250  00000-0  50971-2 0  9398
2 34537 086.3206 087.7447 0048712 286.8358 204.9892 14.82751680247614
0 IRIDIUM 33 DEB
1 34537U 97051JE  13285.44391619  .00039345  00000-0  47268-2 0  9410
2 34537 086.3201 086.4772 0048738 277.2094 111.3884 14.82937629248011
0 IRIDIUM 33 DEB
1 34537U 97051JE  13287.68998848  .00058671  00000-0  70033-2 0  9425
2 34537 086.3195 085.4405 0048670 269.3060 222.9077 14.83105315248355
0 IRIDIUM 33 DEB
1 34537U 97051JE  13289.64662303  .00065199  00000-0  77408-2 0  9434
2 34537 086.3196 084.5370 0048527 262.5007 230.4546 14.83297039248646
0 IRIDIUM 33 DEB
1 34537U 97051JE  13290.17244216  .00063191  00000-0  74945-2 0  9447
2 34537 086.3196 084.2941 0048638 260.6689 158.3146 14.83347451248722
0 IRIDIUM 33 DEB
1 34537U 97051JE  13291.18397834  .00053760  00000-0  63662-2 0  9450
2 34537 086.3197 083.8272 0048711 257.2420 160.0720 14.83458128248870
0 IRIDIUM 33 DEB
1 34537U 97051JE  13293.40938296  .00060822  00000-0  71581-2 0  9467
2 34537 086.3205 082.7991 0048410 249.6297 165.4542 14.83685572249203
0 IRIDIUM 33 DEB
1 34537U 97051JE  13294.42041927  .00066599  00000-0  78140-2 0  9472
2 34537 086.3204 082.3321 0048484 246.2466 165.6881 14.83777893249359
0 IRIDIUM 33 DEB
1 34537U 97051JE  13295.43213230  .00071863  00000-0  84036-2 0  9484
2 34537 086.3207 081.8649 0048374 242.7663 170.0003 14.83889675249502
0 IRIDIUM 33 DEB
1 34537U 97051JE  13296.17434484  .00070465  00000-0  82248-2 0  9493
2 34537 086.3198 081.5217 0048455 240.4370 174.7426 14.83970967249616
